{"type": "FeatureCollection", "features": [ {"type": "Feature", "properties": {"norad_id": 66806, "name": "STARLINK-36069", "group": "last-30-days", "lat": 39.72560712397504, "lon": -39.4091134603269, "alt_km": 298.8948648306423, "timestamp": "2025-12-11T20:41:13.848585+00:00", "meta": {"OBJECT_NAME": "STARLINK-36069", "OBJECT_ID": "2025-278R", "EPOCH": "2025-12-11T14:00:01.999872", "MEAN_MOTION": 15.90192099, "ECCENTRICITY": 0.0001993, "INCLINATION": 42.9981, "RA_OF_ASC_NODE": 259.2153, "ARG_OF_PERICENTER": 261.0106, "MEAN_ANOMALY": 12.0985, "EPHEMERIS_TYPE": 0, "CLASSIFICATION_TYPE": "U", "NORAD_CAT_ID": 66806, "ELEMENT_SET_NO": 999, "REV_AT_EPOCH": 256, "BSTAR": -0.0043695945, "MEAN_MOTION_DOT": -0.01199871, "MEAN_MOTION_DDOT": 0}, "tle": {"line1": "1 66806U 25278R   25345.58335648 -.01199871  00000+0 -43696-2 0  9998", "line2": "2 66806  42.9981 259.2153 0001993 261.0106  12.0985 15.90192099  2569"}}, "geometry": {"type": "Point", "coordinates": [-39.4091134603269, 39.72560712397504]}}, {"type": "Feature", "properties": {"norad_id": 66807, "name": "STARLINK-36000", "group": "last-30-days", "lat": 41.54556629166887, "lon": -30.532991503725206, "alt_km": 298.46341909566854, "timestamp": "2025-12-11T20:41:13.848594+00:00", "meta": {"OBJECT_NAME": "STARLINK-36000", "OBJECT_ID": "2025-278S", "EPOCH": "2025-12-11T14:00:01.999872", "MEAN_MOTION": 15.90274272, "ECCENTRICITY": 0.00020325, "INCLINATION": 42.998, "RA_OF_ASC_NODE": 259.1978, "ARG_OF_PERICENTER": 262.1929, "MEAN_ANOMALY": 17.8182, "EPHEMERIS_TYPE": 0, "CLASSIFICATION_TYPE": "U", "NORAD_CAT_ID": 66807, "ELEMENT_SET_NO": 999, "REV_AT_EPOCH": 283, "BSTAR": -0.0044111545, "MEAN_MOTION_DOT": -0.01214317, "MEAN_MOTION_DDOT": 0}, "tle": {"line1": "1 66807U 25278S   25345.58335648 -.01214317  00000+0 -44112-2 0  9996", "line2": "2 66807  42.9980 259.1978 0002032 262.1929  17.8182 15.90274272  2839"}}, "geometry": {"type": "Point", "coordinates": [-30.532991503725206, 41.54556629166887]}}, {"type": "Feature", "properties": {"norad_id": 66808, "name": "STARLINK-36071", "group": "last-30-days", "lat": 41.962076814780936, "lon": -27.726980556587083, "alt_km": 298.27644701952886, "timestamp": "2025-12-11T20:41:13.848608+00:00", "meta": {"OBJECT_NAME": "STARLINK-36071", "OBJECT_ID": "2025-278T", "EPOCH": "2025-12-11T14:00:01.999872", "MEAN_MOTION": 15.90302143, "ECCENTRICITY": 0.00019376, "INCLINATION": 42.9981, "RA_OF_ASC_NODE": 259.1922, "ARG_OF_PERICENTER": 259.4675, "MEAN_ANOMALY": 22.6548, "EPHEMERIS_TYPE": 0, "CLASSIFICATION_TYPE": "U", "NORAD_CAT_ID": 66808, "ELEMENT_SET_NO": 999, "REV_AT_EPOCH": 277, "BSTAR": -0.0044223603, "MEAN_MOTION_DOT": -0.01242544, "MEAN_MOTION_DDOT": 0}, "tle": {"line1": "1 66808U 25278T   25345.58335648 -.01242544  00000+0 -44224-2 0  9994", "line2": "2 66808  42.9981 259.1922 0001937 259.4675  22.6548 15.90302143  2772"}}, "geometry": {"type": "Point", "coordinates": [-27.726980556587083, 41.962076814780936]}}, {"type": "Feature", "properties": {"norad_id": 66809, "name": "STARLINK-35979", "group": "last-30-days", "lat": 42.8636130636009, "lon": -17.653034525672506, "alt_km": 298.06784449438146, "timestamp": "2025-12-11T20:41:13.848618+00:00", "meta": {"OBJECT_NAME": "STARLINK-35979", "OBJECT_ID": "2025-278U", "EPOCH": "2025-12-11T14:00:01.999872", "MEAN_MOTION": 15.90383651, "ECCENTRICITY": 0.00021181, "INCLINATION": 42.998, "RA_OF_ASC_NODE": 259.1735, "ARG_OF_PERICENTER": 259.4387, "MEAN_ANOMALY": 30.1028, "EPHEMERIS_TYPE": 0, "CLASSIFICATION_TYPE": "U", "NORAD_CAT_ID": 66809, "ELEMENT_SET_NO": 999, "REV_AT_EPOCH": 277, "BSTAR": -0.0044849433, "MEAN_MOTION_DOT": -0.01263012, "MEAN_MOTION_DDOT": 0}, "tle": {"line1": "1 66809U 25278U   25345.58335648 -.01263012  00000+0 -44849-2 0  9991", "line2": "2 66809  42.9980 259.1735 0002118 259.4387  30.1028 15.90383651  2776"}}, "geometry": {"type": "Point", "coordinates": [-17.653034525672506, 42.8636130636009]}}, {"type": "Feature", "properties": {"norad_id": 66810, "name": "STARLINK-36046", "group": "last-30-days", "lat": 42.368224663893145, "lon": -24.33234394964131, "alt_km": 298.2032263913461, "timestamp": "2025-12-11T20:41:13.848628+00:00", "meta": {"OBJECT_NAME": "STARLINK-36046", "OBJECT_ID": "2025-278V", "EPOCH": "2025-12-11T14:00:01.999872", "MEAN_MOTION": 15.9033193, "ECCENTRICITY": 0.00020136, "INCLINATION": 42.9982, "RA_OF_ASC_NODE": 259.1862, "ARG_OF_PERICENTER": 259.0354, "MEAN_ANOMALY": 25.6111, "EPHEMERIS_TYPE": 0, "CLASSIFICATION_TYPE": "U", "NORAD_CAT_ID": 66810, "ELEMENT_SET_NO": 999, "REV_AT_EPOCH": 254, "BSTAR": -0.0044556347, "MEAN_MOTION_DOT": -0.01252621, "MEAN_MOTION_DDOT": 0}, "tle": {"line1": "1 66810U 25278V   25345.58335648 -.01252621  00000+0 -44556-2 0  9992", "line2": "2 66810  42.9982 259.1862 0002013 259.0354  25.6111 15.90331930  2545"}}, "geometry": {"type": "Point", "coordinates": [-24.33234394964131, 42.368224663893145]}}, {"type": "Feature", "properties": {"norad_id": 66811, "name": "STARLINK-36045", "group": "last-30-days", "lat": 42.67689285513446, "lon": -20.840412454396755, "alt_km": 298.0651335950488, "timestamp": "2025-12-11T20:41:13.848638+00:00", "meta": {"OBJECT_NAME": "STARLINK-36045", "OBJECT_ID": "2025-278W", "EPOCH": "2025-12-11T14:00:01.999872", "MEAN_MOTION": 15.90357443, "ECCENTRICITY": 0.0001966, "INCLINATION": 42.9982, "RA_OF_ASC_NODE": 259.1797, "ARG_OF_PERICENTER": 262.6351, "MEAN_ANOMALY": 24.5804, "EPHEMERIS_TYPE": 0, "CLASSIFICATION_TYPE": "U", "NORAD_CAT_ID": 66811, "ELEMENT_SET_NO": 999, "REV_AT_EPOCH": 277, "BSTAR": -0.0044755648, "MEAN_MOTION_DOT": -0.01259038, "MEAN_MOTION_DDOT": 0}, "tle": {"line1": "1 66811U 25278W   25345.58335648 -.01259038  00000+0 -44756-2 0  9994", "line2": "2 66811  42.9982 259.1797 0001966 262.6351  24.5804 15.90357443  2775"}}, "geometry": {"type": "Point", "coordinates": [-20.840412454396755, 42.67689285513446]}}, {"type": "Feature", "properties": {"norad_id": 66812, "name": "STARLINK-36054", "group": "last-30-days", "lat": 42.95459250104288, "lon": -14.83215338244461, "alt_km": 297.87068840079155, "timestamp": "2025-12-11T20:41:13.848649+00:00", "meta": {"OBJECT_NAME": "STARLINK-36054", "OBJECT_ID": "2025-278X", "EPOCH": "2025-12-11T14:00:01.999872", "MEAN_MOTION": 15.90414647, "ECCENTRICITY": 0.00019615, "INCLINATION": 42.9982, "RA_OF_ASC_NODE": 259.1685, "ARG_OF_PERICENTER": 262.461, "MEAN_ANOMALY": 29.1188, "EPHEMERIS_TYPE": 0, "CLASSIFICATION_TYPE": "U", "NORAD_CAT_ID": 66812, "ELEMENT_SET_NO": 999, "REV_AT_EPOCH": 277, "BSTAR": -0.0044932896, "MEAN_MOTION_DOT": -0.01266786, "MEAN_MOTION_DDOT": 0}, "tle": {"line1": "1 66812U 25278X   25345.58335648 -.01266786  00000+0 -44933-2 0  9990", "line2": "2 66812  42.9982 259.1685 0001961 262.4610  29.1188 15.90414647  2779"}}, "geometry": {"type": "Point", "coordinates": [-14.83215338244461, 42.95459250104288]}}, {"type": "Feature", "properties": {"norad_id": 66813, "name": "STARLINK-36042", "group": "last-30-days", "lat": 42.97646750221742, "lon": -12.226309053530692, "alt_km": 297.8518972263255, "timestamp": "2025-12-11T20:41:13.848659+00:00", "meta": {"OBJECT_NAME": "STARLINK-36042", "OBJECT_ID": "2025-278Y", "EPOCH": "2025-12-11T14:00:01.999872", "MEAN_MOTION": 15.90446544, "ECCENTRICITY": 0.00020678, "INCLINATION": 42.9981, "RA_OF_ASC_NODE": 259.1636, "ARG_OF_PERICENTER": 262.1167, "MEAN_ANOMALY": 31.3413, "EPHEMERIS_TYPE": 0, "CLASSIFICATION_TYPE": "U", "NORAD_CAT_ID": 66813, "ELEMENT_SET_NO": 999, "REV_AT_EPOCH": 277, "BSTAR": -0.0045010205, "MEAN_MOTION_DOT": -0.01270659, "MEAN_MOTION_DDOT": 0}, "tle": {"line1": "1 66813U 25278Y   25345.58335648 -.01270659  00000+0 -45010-2 0  9992", "line2": "2 66813  42.9981 259.1636 0002067 262.1167  31.3413 15.90446544  2774"}}, "geometry": {"type": "Point", "coordinates": [-12.226309053530692, 42.97646750221742]}}, {"type": "Feature", "properties": {"norad_id": 66814, "name": "STARLINK-35984", "group": "last-30-days", "lat": 41.02946552904633, "lon": 8.340826096821148, "alt_km": 297.6571646875691, "timestamp": "2025-12-11T20:41:13.848669+00:00", "meta": {"OBJECT_NAME": "STARLINK-35984", "OBJECT_ID": "2025-278Z", "EPOCH": "2025-12-11T14:00:01.999872", "MEAN_MOTION": 15.90586497, "ECCENTRICITY": 0.0001988, "INCLINATION": 42.9979, "RA_OF_ASC_NODE": 259.1247, "ARG_OF_PERICENTER": 259.3166, "MEAN_ANOMALY": 49.3971, "EPHEMERIS_TYPE": 0, "CLASSIFICATION_TYPE": "U", "NORAD_CAT_ID": 66814, "ELEMENT_SET_NO": 999, "REV_AT_EPOCH": 286, "BSTAR": -0.0046256751, "MEAN_MOTION_DOT": -0.01310074, "MEAN_MOTION_DDOT": 0}, "tle": {"line1": "1 66814U 25278Z   25345.58335648 -.01310074  00000+0 -46257-2 0  9993", "line2": "2 66814  42.9979 259.1247 0001988 259.3166  49.3971 15.90586497  2868"}}, "geometry": {"type": "Point", "coordinates": [8.340826096821148, 41.02946552904633]}}, {"type": "Feature", "properties": {"norad_id": 66815, "name": "STARLINK-35985", "group": "last-30-days", "lat": 41.49333915040233, "lon": 5.7223243264338945, "alt_km": 297.73534772851235, "timestamp": "2025-12-11T20:41:13.848679+00:00", "meta": {"OBJECT_NAME": "STARLINK-35985", "OBJECT_ID": "2025-278AA", "EPOCH": "2025-12-11T14:00:01.999872", "MEAN_MOTION": 15.90554025, "ECCENTRICITY": 0.00020602, "INCLINATION": 42.9977, "RA_OF_ASC_NODE": 259.1297, "ARG_OF_PERICENTER": 259.6796, "MEAN_ANOMALY": 47.041, "EPHEMERIS_TYPE": 0, "CLASSIFICATION_TYPE": "U", "NORAD_CAT_ID": 66815, "ELEMENT_SET_NO": 999, "REV_AT_EPOCH": 286, "BSTAR": -0.0046106343, "MEAN_MOTION_DOT": -0.01304424, "MEAN_MOTION_DDOT": 0}, "tle": {"line1": "1 66815U 25278AA  25345.58335648 -.01304424  00000+0 -46106-2 0  9999", "line2": "2 66815  42.9977 259.1297 0002060 259.6796  47.0410 15.90554025  2861"}}, "geometry": {"type": "Point", "coordinates": [5.7223243264338945, 41.49333915040233]}}]}